NORAD_CAT_ID,OBJECT_NAME,OBJECT_TYPE,EPOCH,MEAN_MOTION,ECCENTRICITY,INCLINATION,RA_OF_ASC_NODE,ARG_OF_PERICENTER,MEAN_ANOMALY,BSTAR,MEAN_MOTION_DOT,MEAN_MOTION_DDOT,TLE_LINE0,TLE_LINE1,TLE_LINE2,SEMIMAJOR_AXIS,PERIOD,APOGEE,PERIGEE,DECAYED
53838.0,STARLINK-4773,PAYLOAD,2022-10-15 06:00:00,15.73239515,0.0001196,53.2169,129.0935,105.4143,48.7419,-0.00040032,-0.0005652,0.0,0 STARLINK-4773,1 53838U 22114W   22288.25001157 -.00056520  00000-0 -40032-3 0  9992,2 53838  53.2169 129.0935 0001196 105.4143  48.7419 15.73239515  4704,6727.783,91.531,350.452,348.843,0.0
53838.0,STARLINK-4773,PAYLOAD,2022-10-15 14:00:01,15.73245024,9.76e-05,53.2145,127.4416,94.9406,148.2418,-0.00037445,-0.00052941,0.0,0 STARLINK-4773,1 53838U 22114W   22288.58334491 -.00052941  00000-0 -37445-3 0  9995,2 53838  53.2145 127.4416 0000976  94.9406 148.2418 15.73245024  4755,6727.767,91.531,350.288,348.975,0.0
53838.0,STARLINK-4773,PAYLOAD,2022-10-15 22:00:01,15.7319163,0.0001008,53.2143,125.7941,79.3752,252.8452,-0.00062491,-0.00087382,0.0,0 STARLINK-4773,1 53838U 22114W   22288.91668981 -.00087382  00000-0 -62491-3 0  9992,2 53838  53.2143 125.7941 0001008  79.3752 252.8452 15.73191630  1306,6727.919,91.534,350.462,349.106,0.0
53838.0,STARLINK-4773,PAYLOAD,2022-10-16 06:00:00,15.73124943,7.11e-05,53.2142,124.1433,83.87899999999998,337.1537,0.00036622,0.00050923,0.0,0 STARLINK-4773,1 53838U 22114W   22289.25001157  .00050923  00000-0  36622-3 0  9992,2 53838  53.2142 124.1433 0000711  83.8790 337.1537 15.73124943  4853,6728.109,91.538,350.45300000000015,349.496,0.0
53838.0,STARLINK-4773,PAYLOAD,2022-10-16 14:00:01,15.73167276,8.18e-05,53.2146,122.4933,91.8305,58.043,0.000448,0.00062635,0.0,0 STARLINK-4773,1 53838U 22114W   22289.58334491  .00062635  00000-0  44800-3 0  9998,2 53838  53.2146 122.4933 0000818  91.8305  58.0430 15.73167276  1306,6727.988,91.535,350.404,349.30300000000005,0.0
53838.0,STARLINK-4773,PAYLOAD,2022-10-16 22:00:00,15.73185829,9.97e-05,53.2147,120.8459,69.0326,169.765,5.4664e-05,7.054e-05,0.0,0 STARLINK-4773,1 53838U 22114W   22289.91667824  .00007054  00000-0  54664-4 0  9998,2 53838  53.2147 120.8459 0000997  69.0326 169.7650 15.73185829  1308,6727.936,91.534,350.471,349.13,0.0
53838.0,STARLINK-4773,PAYLOAD,2022-10-17 06:00:00,15.7322693,9.92e-05,53.2153,119.1949,77.2804,250.4253,-0.0004659,-0.00065571,0.0,0 STARLINK-4773,1 53838U 22114W   22290.25001157 -.00065571  00000-0 -46590-3 0  9996,2 53838  53.2153 119.1949 0000992  77.2804 250.4253 15.73226930  5015,6727.818,91.532,350.351,349.016,0.0
53838.0,STARLINK-4773,PAYLOAD,2022-10-17 14:00:01,15.7322146,0.0001095999999999,53.215,117.5451,84.3233,332.3779,0.00046402,0.00065068,0.0,0 STARLINK-4773,1 53838U 22114W   22290.58334491  .00065068  00000-0  46402-3 0  9993,2 53838  53.2150 117.5451 0001096  84.3233 332.3779 15.73221460  5064,6727.834,91.532,350.436,348.962,0.0
53838.0,STARLINK-4773,PAYLOAD,2022-10-17 22:00:00,15.73236308,0.0001087,53.2142,115.8975,64.9371,80.7159,-0.00039604,-0.00055918,0.0,0 STARLINK-4773,1 53838U 22114W   22290.91667824 -.00055918  00000-0 -39604-3 0  9990,2 53838  53.2142 115.8975 0001087  64.9371  80.7159 15.73236308  1300,6727.792,91.531,350.38800000000015,348.925,0.0
53838.0,STARLINK-4773,PAYLOAD,2022-10-18 14:00:01,15.73150272,8.22e-05,53.2144,112.5965,72.6799,250.8174,0.00029764,0.00041268,0.0,0 STARLINK-4773,1 53838U 22114W   22291.58334491  .00041268  00000-0  29764-3 0  9992,2 53838  53.2144 112.5965 0000822  72.6799 250.8174 15.73150272  1303,6728.0369999999975,91.536,350.455,349.349,0.0
53838.0,STARLINK-4773,PAYLOAD,2022-10-18 22:00:00,15.73202473,9.64e-05,53.2176,110.95,73.2797,339.1708,2.416800000000001e-05,2.774e-05,0.0,0 STARLINK-4773,1 53838U 22114W   22291.91667824  .00002774  00000-0  24168-4 0  9991,2 53838  53.2176 110.9500 0000964  73.2797 339.1708 15.73202473  5272,6727.888000000001,91.533,350.402,349.105,0.0
53838.0,STARLINK-4773,PAYLOAD,2022-10-19 08:00:01,15.73206226,9.59e-05,53.2142,108.8848,62.2153,191.3541,5.6928e-05,7.379e-05,0.0,0 STARLINK-4773,1 53838U 22114W   22292.33334491  .00007379  00000-0  56928-4 0  9994,2 53838  53.2142 108.8848 0000959  62.2153 191.3541 15.73206226  5345,6727.877,91.533,350.38800000000015,349.097,0.0
53838.0,STARLINK-4773,PAYLOAD,2022-10-19 14:00:01,15.73224417,0.0001100999999999,53.2142,107.6482,65.4286,164.8504,0.0002824,0.00039239,0.0,0 STARLINK-4773,1 53838U 22114W   22292.58334491  .00039239  00000-0  28240-3 0  9996,2 53838  53.2142 107.6482 0001101  65.4286 164.8504 15.73224417  1306,6727.826,91.532,350.431,348.95,0.0
53838.0,STARLINK-4773,PAYLOAD,2022-10-19 22:00:00,15.73284074,0.0001071,53.2157,106.0012,63.9962,255.2735,-0.0014354,-0.00198103,0.0,0 STARLINK-4773,1 53838U 22114W   22292.91667824 -.00198103  00000-0 -14354-2 0  9990,2 53838  53.2157 106.0012 0001071  63.9962 255.2735 15.73284074  1300,6727.655,91.528,350.241,348.8,0.0
53838.0,STARLINK-4773,PAYLOAD,2022-10-20 06:00:00,15.73174684,0.0001092,53.2136,104.3487,61.5267,346.7033,0.00026022,0.00036017,0.0,0 STARLINK-4773,1 53838U 22114W   22293.25001157  .00036017  00000-0  26022-3 0  9998,2 53838  53.2136 104.3487 0001092  61.5267 346.7033 15.73174684  5484,6727.967,91.535,350.56699999999995,349.098,0.0
53838.0,STARLINK-4773,PAYLOAD,2022-10-20 14:00:01,15.73201585,0.000121,53.2145,102.6993,62.3024,74.8419,-0.00021538,-0.00030738,0.0,0 STARLINK-4773,1 53838U 22114W   22293.58334491 -.00030738  00000-0 -21538-3 0  9997,2 53838  53.2145 102.6993 0001210  62.3024  74.8419 15.73201585  1304,6727.891,91.533,350.57,348.94199999999995,0.0
53838.0,STARLINK-4773,PAYLOAD,2022-10-20 22:00:00,15.73141922,0.0001437,53.2145,101.052,51.3696,174.6675,0.00074744,0.0010534,0.0,0 STARLINK-4773,1 53838U 22114W   22293.91667824  .00105340  00000-0  74744-3 0  9990,2 53838  53.2145 101.0520 0001437  51.3696 174.6675 15.73141922  1308,6728.061,91.537,350.89300000000014,348.959,0.0
53838.0,STARLINK-4773,PAYLOAD,2022-10-21 14:00:01,15.73247317,0.0001188,53.2145,97.751,50.4242,353.5445,0.0001336,0.00018208,0.0,0 STARLINK-4773,1 53838U 22114W   22294.58334491  .00018208  00000-0  13360-3 0  9998,2 53838  53.2145  97.7510 0001188  50.4242 353.5445 15.73247317  1306,6727.76,91.53,350.425,348.826,0.0
53838.0,STARLINK-4773,PAYLOAD,2022-10-21 22:00:00,15.73238061,0.0001412,53.2136,96.1022,40.5869,92.3472,-0.00045115,-0.00063563,0.0,0 STARLINK-4773,1 53838U 22114W   22294.91667824 -.00063563  00000-0 -45115-3 0  9993,2 53838  53.2136  96.1022 0001412  40.5869  92.3472 15.73238061  5759,6727.7869999999975,91.531,350.602,348.702,0.0
53838.0,STARLINK-4773,PAYLOAD,2022-10-22 14:00:01,15.73236154,0.0001264999999999,53.2151,92.8014,42.0135,268.77,-0.00011324,-0.00016506,0.0,0 STARLINK-4773,1 53838U 22114W   22295.58334491 -.00016506  00000-0 -11324-3 0  9998,2 53838  53.2151  92.8014 0001265  42.0135 268.7700 15.73236154  1300,6727.792,91.531,350.5080000000001,348.806,0.0
53838.0,STARLINK-4773,PAYLOAD,2022-10-22 22:00:00,15.73201312,0.000155,53.2149,91.1529,36.7766,3.0028,0.00069067,0.00097448,0.0,0 STARLINK-4773,1 53838U 22114W   22295.91667824  .00097448  00000-0  69067-3 0  9993,2 53838  53.2149  91.1529 0001550  36.7766   3.0028 15.73201312  1308,6727.891,91.533,350.7990000000001,348.714,0.0
53838.0,STARLINK-4773,PAYLOAD,2022-10-23 00:00:02,15.73223529,0.0001539,53.2149,90.74,37.1927,114.8873,0.00053855,0.00075723,0.0,0 STARLINK-4773,1 53838U 22114W   22296.00002315  .00075723  00000-0  53855-3 0  9992,2 53838  53.2149  90.7400 0001539  37.1927 114.8873 15.73223529  5927,6727.828,91.532,350.72900000000016,348.658,0.0
53838.0,STARLINK-4773,PAYLOAD,2022-10-23 14:00:01,15.73297093,0.0001472,53.2151,87.8523,38.425,179.3338,-0.00065188,-0.00091499,0.0,0 STARLINK-4773,1 53838U 22114W   22296.58334491 -.00091499  00000-0 -65188-3 0  9990,2 53838  53.2151  87.8523 0001472  38.4250 179.3338 15.73297093  1309,6727.618,91.528,350.474,348.49300000000005,0.0
53838.0,STARLINK-4773,PAYLOAD,2022-10-23 22:00:00,15.73228144,0.0001631999999999,53.2145,86.2037,31.1871,275.5708,-0.0007537,-0.00105215,0.0,0 STARLINK-4773,1 53838U 22114W   22296.91667824 -.00105215  00000-0 -75370-3 0  9992,2 53838  53.2145  86.2037 0001632  31.1871 275.5708 15.73228144  1303,6727.815,91.532,350.778,348.582,0.0
53838.0,STARLINK-4773,PAYLOAD,2022-10-24 06:00:00,15.73125119,0.0001347,53.2147,84.552,33.6532,2.0417,-0.00059515,-0.0008306,0.0,0 STARLINK-4773,1 53838U 22114W   22297.25001157 -.00083060  00000-0 -59515-3 0  9997,2 53838  53.2147  84.5520 0001347  33.6532   2.0417 15.73125119  6119,6728.109,91.538,350.88,349.06699999999995,0.0
53838.0,STARLINK-4773,PAYLOAD,2022-10-24 14:00:01,15.73065385,0.0001478,53.215,82.9037,28.8545,95.644,0.00038294,0.00053155,0.0,0 STARLINK-4773,1 53838U 22114W   22297.58334491  .00053155  00000-0  38294-3 0  9994,2 53838  53.2150  82.9037 0001478  28.8545  95.6440 15.73065385  6171,6728.279,91.541,351.13800000000015,349.15,0.0
53838.0,STARLINK-4773,PAYLOAD,2022-10-24 22:00:00,15.7310256,0.0001715,53.215,81.2554,26.3463,186.9281,0.00119,0.00169086,0.0,0 STARLINK-4773,1 53838U 22114W   22297.91667824  .00169086  00000-0  11900-2 0  9995,2 53838  53.2150  81.2554 0001715  26.3463 186.9281 15.73102560  1307,6728.1730000000025,91.539,351.19199999999995,348.884,0.0
53838.0,STARLINK-4773,PAYLOAD,2022-10-25 06:00:00,15.7320119,0.000156,53.2153,79.6039,29.38,272.7793,4.1671e-06,-3.6e-07,0.0,0 STARLINK-4773,1 53838U 22114W   22298.25001157 -.00000036  00000-0  41671-5 0  9995,2 53838  53.2153  79.6039 0001560  29.3800 272.7793 15.73201190  6277,6727.892,91.533,350.806,348.707,0.0
53838.0,STARLINK-4773,PAYLOAD,2022-10-25 14:00:01,15.732027100000002,0.0001727,53.2154,77.9555,26.2384,4.8512,0.00014978,0.00020454,0.0,0 STARLINK-4773,1 53838U 22114W   22298.58334491  .00020454  00000-0  14978-3 0  9994,2 53838  53.2154  77.9555 0001727  26.2384   4.8512 15.73202710  1301,6727.887,91.533,350.914,348.591,0.0
